[{"OBJECT_NAME":"MESON-1","OBJECT_ID":"2024-043AK","EPOCH":"2026-03-09T21:36:16.481664","MEAN_MOTION":15.29893494,"ECCENTRICITY":0.00095452,"INCLINATION":97.5469,"RA_OF_ASC_NODE":205.2839,"ARG_OF_PERICENTER":227.1432,"MEAN_ANOMALY":132.9007,"EPHEMERIS_TYPE":0,"CLASSIFICATION_TYPE":"U","NORAD_CAT_ID":59131,"ELEMENT_SET_NO":999,"REV_AT_EPOCH":11189,"BSTAR":0.0002974823,"MEAN_MOTION_DOT":8.544e-5,"MEAN_MOTION_DDOT":0},{"OBJECT_NAME":"STARLINK-34601","OBJECT_ID":"2025-167G","EPOCH":"2026-03-09T04:57:28.475712","MEAN_MOTION":15.30186675,"ECCENTRICITY":0.00012305,"INCLINATION":53.1619,"RA_OF_ASC_NODE":29.0619,"ARG_OF_PERICENTER":87.4764,"MEAN_ANOMALY":272.6377,"EPHEMERIS_TYPE":0,"CLASSIFICATION_TYPE":"U","NORAD_CAT_ID":65084,"ELEMENT_SET_NO":999,"REV_AT_EPOCH":3340,"BSTAR":0.00065799119,"MEAN_MOTION_DOT":0.00019171,"MEAN_MOTION_DDOT":0}]
